{
  "type": "FeatureCollection",
  "features": [
    {
      "type": "Feature",
      "properties": {
        "norad_id": 55973,
        "name": "TIANMU-1 03",
        "group": "weather",
        "lat": -23.140576462689605,
        "lon": 151.30182451057632,
        "alt_km": 449.0165681407407,
        "timestamp": "2025-12-11T10:53:15.526498+00:00",
        "meta_object_name": "TIANMU-1 03",
        "meta_object_id": "2023-039A",
        "meta_epoch": "2025-12-11T04:45:15.846048",
        "meta_mean_motion": 15.40849188,
        "meta_eccentricity": 0.0004473,
        "meta_inclination": 97.511,
        "meta_ra_of_asc_node": 147.8067,
        "meta_arg_of_pericenter": 65.6884,
        "meta_mean_anomaly": 294.4829,
        "meta_ephemeris_type": 0,
        "meta_classification_type": "U",
        "meta_norad_cat_id": 55973,
        "meta_element_set_no": 999,
        "meta_rev_at_epoch": 15182,
        "meta_bstar": 0.00056653,
        "meta_mean_motion_dot": 0.00023205,
        "meta_mean_motion_ddot": 0,
        "tle_line1": "1 55973U 23039A   25345.19810007  .00023205  00000+0  56653-3 0  9990",
        "tle_line2": "2 55973  97.5110 147.8067 0004473  65.6884 294.4829 15.40849188151825"
      },
      "geometry": {
        "type": "Point",
        "coordinates": [
          151.30182451057632,
          -23.140576462689605
        ]
      }
    },
    {
      "type": "Feature",
      "properties": {
        "norad_id": 55974,
        "name": "TIANMU-1 04",
        "group": "weather",
        "lat": 82.45404372426506,
        "lon": 62.92999127461863,
        "alt_km": 432.0405377217512,
        "timestamp": "2025-12-11T10:53:15.526526+00:00",
        "meta_object_name": "TIANMU-1 04",
        "meta_object_id": "2023-039B",
        "meta_epoch": "2025-12-11T04:16:09.067008",
        "meta_mean_motion": 15.41184057,
        "meta_eccentricity": 0.0005151,
        "meta_inclination": 97.5042,
        "meta_ra_of_asc_node": 146.9777,
        "meta_arg_of_pericenter": 60.9726,
        "meta_mean_anomaly": 299.2035,
        "meta_ephemeris_type": 0,
        "meta_classification_type": "U",
        "meta_norad_cat_id": 55974,
        "meta_element_set_no": 999,
        "meta_rev_at_epoch": 15182,
        "meta_bstar": 0.00058226,
        "meta_mean_motion_dot": 0.00024123,
        "meta_mean_motion_ddot": 0,
        "tle_line1": "1 55974U 23039B   25345.17788272  .00024123  00000+0  58226-3 0  9995",
        "tle_line2": "2 55974  97.5042 146.9777 0005151  60.9726 299.2035 15.41184057151825"
      },
      "geometry": {
        "type": "Point",
        "coordinates": [
          62.92999127461863,
          82.45404372426506
        ]
      }
    },
    {
      "type": "Feature",
      "properties": {
        "norad_id": 55975,
        "name": "TIANMU-1 05",
        "group": "weather",
        "lat": 56.27706511323661,
        "lon": -20.84945337050527,
        "alt_km": 436.10832777678934,
        "timestamp": "2025-12-11T10:53:15.526539+00:00",
        "meta_object_name": "TIANMU-1 05",
        "meta_object_id": "2023-039C",
        "meta_epoch": "2025-12-11T04:07:18.735168",
        "meta_mean_motion": 15.40805067,
        "meta_eccentricity": 0.0004386,
        "meta_inclination": 97.5089,
        "meta_ra_of_asc_node": 147.4637,
        "meta_arg_of_pericenter": 82.6563,
        "meta_mean_anomaly": 277.5181,
        "meta_ephemeris_type": 0,
        "meta_classification_type": "U",
        "meta_norad_cat_id": 55975,
        "meta_element_set_no": 999,
        "meta_rev_at_epoch": 15180,
        "meta_bstar": 0.00055045,
        "meta_mean_motion_dot": 0.00022509,
        "meta_mean_motion_ddot": 0,
        "tle_line1": "1 55975U 23039C   25345.17174462  .00022509  00000+0  55045-3 0  9998",
        "tle_line2": "2 55975  97.5089 147.4637 0004386  82.6563 277.5181 15.40805067151806"
      },
      "geometry": {
        "type": "Point",
        "coordinates": [
          -20.84945337050527,
          56.27706511323661
        ]
      }
    },
    {
      "type": "Feature",
      "properties": {
        "norad_id": 55976,
        "name": "TIANMU-1 06",
        "group": "weather",
        "lat": 74.93431817714942,
        "lon": 118.87061286395462,
        "alt_km": 432.08798441728777,
        "timestamp": "2025-12-11T10:53:15.526550+00:00",
        "meta_object_name": "TIANMU-1 06",
        "meta_object_id": "2023-039D",
        "meta_epoch": "2025-12-11T04:19:21.533376",
        "meta_mean_motion": 15.41235784,
        "meta_eccentricity": 0.0004721,
        "meta_inclination": 97.5099,
        "meta_ra_of_asc_node": 147.936,
        "meta_arg_of_pericenter": 77.9051,
        "meta_mean_anomaly": 282.2724,
        "meta_ephemeris_type": 0,
        "meta_classification_type": "U",
        "meta_norad_cat_id": 55976,
        "meta_element_set_no": 999,
        "meta_rev_at_epoch": 15182,
        "meta_bstar": 0.00056746,
        "meta_mean_motion_dot": 0.00023545,
        "meta_mean_motion_ddot": 0,
        "tle_line1": "1 55976U 23039D   25345.18011034  .00023545  00000+0  56746-3 0  9995",
        "tle_line2": "2 55976  97.5099 147.9360 0004721  77.9051 282.2724 15.41235784151820"
      },
      "geometry": {
        "type": "Point",
        "coordinates": [
          118.87061286395462,
          74.93431817714942
        ]
      }
    },
    {
      "type": "Feature",
      "properties": {
        "norad_id": 56232,
        "name": "FENGYUN 3G",
        "group": "weather",
        "lat": 49.95802153600446,
        "lon": -37.77356204485406,
        "alt_km": 395.6488635819733,
        "timestamp": "2025-12-11T10:53:15.526561+00:00",
        "meta_object_name": "FENGYUN 3G",
        "meta_object_id": "2023-055A",
        "meta_epoch": "2025-12-11T04:19:56.451936",
        "meta_mean_motion": 15.53495979,
        "meta_eccentricity": 0.0009292,
        "meta_inclination": 49.9932,
        "meta_ra_of_asc_node": 235.5005,
        "meta_arg_of_pericenter": 141.2509,
        "meta_mean_anomaly": 218.9126,
        "meta_ephemeris_type": 0,
        "meta_classification_type": "U",
        "meta_norad_cat_id": 56232,
        "meta_element_set_no": 999,
        "meta_rev_at_epoch": 15078,
        "meta_bstar": 0.00075653,
        "meta_mean_motion_dot": 0.0004892,
        "meta_mean_motion_ddot": 0,
        "tle_line1": "1 56232U 23055A   25345.18051449  .00048920  00000+0  75653-3 0  9995",
        "tle_line2": "2 56232  49.9932 235.5005 0009292 141.2509 218.9126 15.53495979150787"
      },
      "geometry": {
        "type": "Point",
        "coordinates": [
          -37.77356204485406,
          49.95802153600446
        ]
      }
    },
    {
      "type": "Feature",
      "properties": {
        "norad_id": 57166,
        "name": "METEOR-M2 3",
        "group": "weather",
        "lat": 41.41727732167134,
        "lon": -133.27815613595408,
        "alt_km": 810.0721032815936,
        "timestamp": "2025-12-11T10:53:15.526572+00:00",
        "meta_object_name": "METEOR-M2 3",
        "meta_object_id": "2023-091A",
        "meta_epoch": "2025-12-11T05:11:00.343680",
        "meta_mean_motion": 14.24025817,
        "meta_eccentricity": 0.0003995,
        "meta_inclination": 98.638,
        "meta_ra_of_asc_node": 38.7819,
        "meta_arg_of_pericenter": 13.1194,
        "meta_mean_anomaly": 347.0088,
        "meta_ephemeris_type": 0,
        "meta_classification_type": "U",
        "meta_norad_cat_id": 57166,
        "meta_element_set_no": 999,
        "meta_rev_at_epoch": 12776,
        "meta_bstar": 3.1932e-05,
        "meta_mean_motion_dot": 3e-07,
        "meta_mean_motion_ddot": 0,
        "tle_line1": "1 57166U 23091A   25345.21597620  .00000030  00000+0  31932-4 0  9995",
        "tle_line2": "2 57166  98.6380  38.7819 0003995  13.1194 347.0088 14.24025817127769"
      },
      "geometry": {
        "type": "Point",
        "coordinates": [
          -133.27815613595408,
          41.41727732167134
        ]
      }
    },
    {
      "type": "Feature",
      "properties": {
        "norad_id": 57399,
        "name": "TIANMU-1 07",
        "group": "weather",
        "lat": -24.037253417918,
        "lon": -147.94068998637565,
        "alt_km": 489.19255730490477,
        "timestamp": "2025-12-11T10:53:15.526582+00:00",
        "meta_object_name": "TIANMU-1 07",
        "meta_object_id": "2023-101A",
        "meta_epoch": "2025-12-11T03:42:39.313152",
        "meta_mean_motion": 15.28033268,
        "meta_eccentricity": 0.0005614,
        "meta_inclination": 97.2878,
        "meta_ra_of_asc_node": 35.039,
        "meta_arg_of_pericenter": 85.6007,
        "meta_mean_anomaly": 274.5874,
        "meta_ephemeris_type": 0,
        "meta_classification_type": "U",
        "meta_norad_cat_id": 57399,
        "meta_element_set_no": 999,
        "meta_rev_at_epoch": 13291,
        "meta_bstar": 0.00042906,
        "meta_mean_motion_dot": 0.00011671,
        "meta_mean_motion_ddot": 0,
        "tle_line1": "1 57399U 23101A   25345.15462168  .00011671  00000+0  42906-3 0  9991",
        "tle_line2": "2 57399  97.2878  35.0390 0005614  85.6007 274.5874 15.28033268132919"
      },
      "geometry": {
        "type": "Point",
        "coordinates": [
          -147.94068998637565,
          -24.037253417918
        ]
      }
    }
  ]
}